{
  "type": "FeatureCollection",
  "features": [
    {
      "type": "Feature",
      "properties": {
        "norad_id": 54259,
        "name": "EUTELSAT 10B",
        "group": "eutelsat",
        "lat": -0.00017936071722997579,
        "lon": -113.52440397341596,
        "alt_km": 35785.4140641318,
        "timestamp": "2025-12-04T10:51:49.777699+00:00",
        "meta_object_name": "EUTELSAT 10B",
        "meta_object_id": "2022-157A",
        "meta_epoch": "2025-12-03T04:33:38.732832",
        "meta_mean_motion": 1.00268425,
        "meta_eccentricity": 0.0001038,
        "meta_inclination": 0.0608,
        "meta_ra_of_asc_node": 103.578,
        "meta_arg_of_pericenter": 72.8343,
        "meta_mean_anomaly": 334.2971,
        "meta_ephemeris_type": 0,
        "meta_classification_type": "U",
        "meta_norad_cat_id": 54259,
        "meta_element_set_no": 999,
        "meta_rev_at_epoch": 1106,
        "meta_bstar": 0,
        "meta_mean_motion_dot": 8.7e-07,
        "meta_mean_motion_ddot": 0,
        "tle_line1": "1 54259U 22157A   25337.19003163  .00000087  00000+0  00000+0 0  9998",
        "tle_line2": "2 54259   0.0608 103.5780 0001038  72.8343 334.2971  1.00268425 11069"
      },
      "geometry": {
        "type": "Point",
        "coordinates": [
          -113.52440397341596,
          -0.00017936071722997579
        ]
      }
    },
    {
      "type": "Feature",
      "properties": {
        "norad_id": 59346,
        "name": "EUTELSAT 36D",
        "group": "eutelsat",
        "lat": -0.04212129145498226,
        "lon": -87.69275943579822,
        "alt_km": 35783.847059412445,
        "timestamp": "2025-12-04T10:51:49.777710+00:00",
        "meta_object_name": "EUTELSAT 36D",
        "meta_object_id": "2024-059A",
        "meta_epoch": "2025-12-03T13:55:38.715744",
        "meta_mean_motion": 1.00270882,
        "meta_eccentricity": 6.596e-05,
        "meta_inclination": 0.0224,
        "meta_ra_of_asc_node": 345.8589,
        "meta_arg_of_pericenter": 317.7492,
        "meta_mean_anomaly": 13.8207,
        "meta_ephemeris_type": 0,
        "meta_classification_type": "U",
        "meta_norad_cat_id": 59346,
        "meta_element_set_no": 999,
        "meta_rev_at_epoch": 618,
        "meta_bstar": 0,
        "meta_mean_motion_dot": 0,
        "meta_mean_motion_ddot": 0,
        "tle_line1": "1 59346U 24059A   25337.58030921  .00000000  00000+0  00000+0 0  9993",
        "tle_line2": "2 59346   0.0224 345.8589 0000659 317.7492  13.8207  1.00270882  6186"
      },
      "geometry": {
        "type": "Point",
        "coordinates": [
          -87.69275943579822,
          -0.04212129145498226
        ]
      }
    }
  ]
}